{"type": "FeatureCollection", "features": [ {"type": "Feature", "properties": {"norad_id": 31073, "name": "FENGYUN 1C DEB", "group": "fengyun-1c-debris", "lat": -68.9698374105858, "lon": 0.28833647753511416, "alt_km": 784.4223627425336, "timestamp": "2025-12-21T03:56:51.116135+00:00", "meta": {"OBJECT_NAME": "FENGYUN 1C DEB", "OBJECT_ID": "1999-025BFT", "EPOCH": "2025-12-18T09:02:29.976576", "MEAN_MOTION": 14.248255, "ECCENTRICITY": 0.00450963, "INCLINATION": 99.2192, "RA_OF_ASC_NODE": 202.3511, "ARG_OF_PERICENTER": 269.7915, "MEAN_ANOMALY": 89.8095, "EPHEMERIS_TYPE": 0, "CLASSIFICATION_TYPE": "U", "NORAD_CAT_ID": 31073, "ELEMENT_SET_NO": 999, "REV_AT_EPOCH": 97163, "BSTAR": 0.0009478953, "MEAN_MOTION_DOT": 2.186e-05, "MEAN_MOTION_DDOT": 0}, "tle": {"line1": "1 31073U 99025BFT 25352.37673584  .00002186  00000+0  94790-3 0  9997", "line2": "2 31073  99.2192 202.3511 0045096 269.7915  89.8095 14.24825500971631"}}, "geometry": {"type": "Point", "coordinates": [0.28833647753511416, -68.9698374105858]}}, {"type": "Feature", "properties": {"norad_id": 31074, "name": "FENGYUN 1C DEB", "group": "fengyun-1c-debris", "lat": -40.480301006340596, "lon": 82.4481344303012, "alt_km": 792.6726279447357, "timestamp": "2025-12-21T03:56:51.116144+00:00", "meta": {"OBJECT_NAME": "FENGYUN 1C DEB", "OBJECT_ID": "1999-025BFU", "EPOCH": "2025-12-18T17:10:14.920608", "MEAN_MOTION": 14.14282346, "ECCENTRICITY": 0.00866655, "INCLINATION": 98.9597, "RA_OF_ASC_NODE": 267.7307, "ARG_OF_PERICENTER": 248.9411, "MEAN_ANOMALY": 110.2477, "EPHEMERIS_TYPE": 0, "CLASSIFICATION_TYPE": "U", "NORAD_CAT_ID": 31074, "ELEMENT_SET_NO": 999, "REV_AT_EPOCH": 95664, "BSTAR": 0.001489856, "MEAN_MOTION_DOT": 2.905e-05, "MEAN_MOTION_DDOT": 0}, "tle": {"line1": "1 31074U 99025BFU 25352.71545047  .00002905  00000+0  14899-2 0  9998", "line2": "2 31074  98.9597 267.7307 0086665 248.9411 110.2477 14.14282346956643"}}, "geometry": {"type": "Point", "coordinates": [82.4481344303012, -40.480301006340596]}}, {"type": "Feature", "properties": {"norad_id": 31078, "name": "FENGYUN 1C DEB", "group": "fengyun-1c-debris", "lat": 66.79546780508187, "lon": 34.29355140941292, "alt_km": 764.0981618078977, "timestamp": "2025-12-21T03:56:51.116153+00:00", "meta": {"OBJECT_NAME": "FENGYUN 1C DEB", "OBJECT_ID": "1999-025BFY", "EPOCH": "2025-12-15T10:54:33.357600", "MEAN_MOTION": 14.22084734, "ECCENTRICITY": 0.0117132, "INCLINATION": 98.8675, "RA_OF_ASC_NODE": 49.9086, "ARG_OF_PERICENTER": 141.0899, "MEAN_ANOMALY": 232.8229, "EPHEMERIS_TYPE": 0, "CLASSIFICATION_TYPE": "U", "NORAD_CAT_ID": 31078, "ELEMENT_SET_NO": 999, "REV_AT_EPOCH": 96931, "BSTAR": 0.00048192939, "MEAN_MOTION_DOT": 1.1e-05, "MEAN_MOTION_DDOT": 0}, "tle": {"line1": "1 31078U 99025BFY 25349.45455275  .00001100  00000+0  48193-3 0  9993", "line2": "2 31078  98.8675  49.9086 0117132 141.0899 232.8229 14.22084734969318"}}, "geometry": {"type": "Point", "coordinates": [34.29355140941292, 66.79546780508187]}}, {"type": "Feature", "properties": {"norad_id": 31081, "name": "FENGYUN 1C DEB", "group": "fengyun-1c-debris", "lat": 80.18466866375375, "lon": -51.81890576008543, "alt_km": 882.5431001600027, "timestamp": "2025-12-21T03:56:51.116162+00:00", "meta": {"OBJECT_NAME": "FENGYUN 1C DEB", "OBJECT_ID": "1999-025BGB", "EPOCH": "2025-12-20T12:53:28.094208", "MEAN_MOTION": 14.06298844, "ECCENTRICITY": 0.004766, "INCLINATION": 98.7696, "RA_OF_ASC_NODE": 10.7291, "ARG_OF_PERICENTER": 208.7828, "MEAN_ANOMALY": 302.9722, "EPHEMERIS_TYPE": 0, "CLASSIFICATION_TYPE": "U", "NORAD_CAT_ID": 31081, "ELEMENT_SET_NO": 999, "REV_AT_EPOCH": 96570, "BSTAR": -5.1786e-05, "MEAN_MOTION_DOT": -1.29e-06, "MEAN_MOTION_DDOT": 0}, "tle": {"line1": "1 31081U 99025BGB 25354.53713072 -.00000129  00000+0 -51786-4 0  9999", "line2": "2 31081  98.7696  10.7291 0047660 208.7828 302.9722 14.06298844965706"}}, "geometry": {"type": "Point", "coordinates": [-51.81890576008543, 80.18466866375375]}}, {"type": "Feature", "properties": {"norad_id": 31083, "name": "FENGYUN 1C DEB", "group": "fengyun-1c-debris", "lat": 27.263148649091775, "lon": 108.50238240997601, "alt_km": 691.9712198567058, "timestamp": "2025-12-21T03:56:51.116171+00:00", "meta": {"OBJECT_NAME": "FENGYUN 1C DEB", "OBJECT_ID": "1999-025BGD", "EPOCH": "2025-12-19T14:38:04.432992", "MEAN_MOTION": 14.6219438, "ECCENTRICITY": 0.00318314, "INCLINATION": 98.6473, "RA_OF_ASC_NODE": 111.3739, "ARG_OF_PERICENTER": 284.0214, "MEAN_ANOMALY": 204.2454, "EPHEMERIS_TYPE": 0, "CLASSIFICATION_TYPE": "U", "NORAD_CAT_ID": 31083, "ELEMENT_SET_NO": 999, "REV_AT_EPOCH": 97810, "BSTAR": 0.0016748053, "MEAN_MOTION_DOT": 8.449e-05, "MEAN_MOTION_DDOT": 0}, "tle": {"line1": "1 31083U 99025BGD 25353.60977353  .00008449  00000+0  16748-2 0  9990", "line2": "2 31083  98.6473 111.3739 0031831 284.0214 204.2454 14.62194380978100"}}, "geometry": {"type": "Point", "coordinates": [108.50238240997601, 27.263148649091775]}}, {"type": "Feature", "properties": {"norad_id": 31085, "name": "FENGYUN 1C DEB", "group": "fengyun-1c-debris", "lat": -80.3191593335858, "lon": -51.80032325275005, "alt_km": 794.4622115185539, "timestamp": "2025-12-21T03:56:51.116180+00:00", "meta": {"OBJECT_NAME": "FENGYUN 1C DEB", "OBJECT_ID": "1999-025BGF", "EPOCH": "2025-12-19T19:05:03.155424", "MEAN_MOTION": 14.30313087, "ECCENTRICITY": 0.00869993, "INCLINATION": 98.9838, "RA_OF_ASC_NODE": 194.8123, "ARG_OF_PERICENTER": 357.6075, "MEAN_ANOMALY": 63.0239, "EPHEMERIS_TYPE": 0, "CLASSIFICATION_TYPE": "U", "NORAD_CAT_ID": 31085, "ELEMENT_SET_NO": 999, "REV_AT_EPOCH": 97817, "BSTAR": 7.9617114e-05, "MEAN_MOTION_DOT": 1.68e-06, "MEAN_MOTION_DDOT": 0}, "tle": {"line1": "1 31085U 99025BGF 25353.79517541  .00000168  00000+0  79617-4 0  9997", "line2": "2 31085  98.9838 194.8123 0086999 357.6075  63.0239 14.30313087978171"}}, "geometry": {"type": "Point", "coordinates": [-51.80032325275005, -80.3191593335858]}}, {"type": "Feature", "properties": {"norad_id": 31087, "name": "FENGYUN 1C DEB", "group": "fengyun-1c-debris", "lat": -51.77248626933454, "lon": -175.0257852052858, "alt_km": 595.3451460222695, "timestamp": "2025-12-21T03:56:51.116190+00:00", "meta": {"OBJECT_NAME": "FENGYUN 1C DEB", "OBJECT_ID": "1999-025BGH", "EPOCH": "2025-12-20T00:41:41.992800", "MEAN_MOTION": 14.60372317, "ECCENTRICITY": 0.01716566, "INCLINATION": 98.1015, "RA_OF_ASC_NODE": 14.2817, "ARG_OF_PERICENTER": 267.9455, "MEAN_ANOMALY": 119.2306, "EPHEMERIS_TYPE": 0, "CLASSIFICATION_TYPE": "U", "NORAD_CAT_ID": 31087, "ELEMENT_SET_NO": 999, "REV_AT_EPOCH": 98876, "BSTAR": 0.00051397349, "MEAN_MOTION_DOT": 3.004e-05, "MEAN_MOTION_DDOT": 0}, "tle": {"line1": "1 31087U 99025BGH 25354.02895825  .00003004  00000+0  51397-3 0  9996", "line2": "2 31087  98.1015  14.2817 0171656 267.9455 119.2306 14.60372317988766"}}, "geometry": {"type": "Point", "coordinates": [-175.0257852052858, -51.77248626933454]}}, {"type": "Feature", "properties": {"norad_id": 31088, "name": "FENGYUN 1C DEB", "group": "fengyun-1c-debris", "lat": -76.7123292771801, "lon": -168.60746459607392, "alt_km": 817.7121459531427, "timestamp": "2025-12-21T03:56:51.116199+00:00", "meta": {"OBJECT_NAME": "FENGYUN 1C DEB", "OBJECT_ID": "1999-025BGJ", "EPOCH": "2025-12-20T03:21:12.353184", "MEAN_MOTION": 14.28750906, "ECCENTRICITY": 0.00280606, "INCLINATION": 99.4114, "RA_OF_ASC_NODE": 54.9006, "ARG_OF_PERICENTER": 39.8245, "MEAN_ANOMALY": 353.0532, "EPHEMERIS_TYPE": 0, "CLASSIFICATION_TYPE": "U", "NORAD_CAT_ID": 31088, "ELEMENT_SET_NO": 999, "REV_AT_EPOCH": 96655, "BSTAR": 0.0010684621, "MEAN_MOTION_DOT": 2.651e-05, "MEAN_MOTION_DDOT": 0}, "tle": {"line1": "1 31088U 99025BGJ 25354.13972631  .00002651  00000+0  10685-2 0  9991", "line2": "2 31088  99.4114  54.9006 0028060  39.8245 353.0532 14.28750906966555"}}, "geometry": {"type": "Point", "coordinates": [-168.60746459607392, -76.7123292771801]}}, {"type": "Feature", "properties": {"norad_id": 31089, "name": "FENGYUN 1C DEB", "group": "fengyun-1c-debris", "lat": -32.608520163625684, "lon": -48.901181193814665, "alt_km": 802.4539988733513, "timestamp": "2025-12-21T03:56:51.116208+00:00", "meta": {"OBJECT_NAME": "FENGYUN 1C DEB", "OBJECT_ID": "1999-025BGK", "EPOCH": "2025-12-16T08:54:38.899584", "MEAN_MOTION": 13.88332505, "ECCENTRICITY": 0.02061137, "INCLINATION": 98.9495, "RA_OF_ASC_NODE": 132.2833, "ARG_OF_PERICENTER": 201.7776, "MEAN_ANOMALY": 186.7705, "EPHEMERIS_TYPE": 0, "CLASSIFICATION_TYPE": "U", "NORAD_CAT_ID": 31089, "ELEMENT_SET_NO": 999, "REV_AT_EPOCH": 68110, "BSTAR": 0.00075252237, "MEAN_MOTION_DOT": 1.025e-05, "MEAN_MOTION_DDOT": 0}, "tle": {"line1": "1 31089U 99025BGK 25350.37128356  .00001025  00000+0  75252-3 0  9997", "line2": "2 31089  98.9495 132.2833 0206113 201.7776 186.7705 13.88332505681100"}}, "geometry": {"type": "Point", "coordinates": [-48.901181193814665, -32.608520163625684]}}, {"type": "Feature", "properties": {"norad_id": 31090, "name": "FENGYUN 1C DEB", "group": "fengyun-1c-debris", "lat": 14.31659297760402, "lon": 98.69813791185234, "alt_km": 463.26576625424605, "timestamp": "2025-12-21T03:56:51.116216+00:00", "meta": {"OBJECT_NAME": "FENGYUN 1C DEB", "OBJECT_ID": "1999-025BGL", "EPOCH": "2025-12-19T12:45:06.016032", "MEAN_MOTION": 15.34127297, "ECCENTRICITY": 0.0054324, "INCLINATION": 98.9829, "RA_OF_ASC_NODE": 99.0272, "ARG_OF_PERICENTER": 109.1721, "MEAN_ANOMALY": 251.5408, "EPHEMERIS_TYPE": 0, "CLASSIFICATION_TYPE": "U", "NORAD_CAT_ID": 31090, "ELEMENT_SET_NO": 999, "REV_AT_EPOCH": 942, "BSTAR": 0.0011892, "MEAN_MOTION_DOT": 0.00041267, "MEAN_MOTION_DDOT": 0}, "tle": {"line1": "1 31090U 99025BGL 25353.53131963  .00041267  00000+0  11892-2 0  9999", "line2": "2 31090  98.9829  99.0272 0054324 109.1721 251.5408 15.34127297  9429"}}, "geometry": {"type": "Point", "coordinates": [98.69813791185234, 14.31659297760402]}}]}